NORAD_CAT_ID,OBJECT_NAME,OBJECT_TYPE,EPOCH,MEAN_MOTION,ECCENTRICITY,INCLINATION,RA_OF_ASC_NODE,ARG_OF_PERICENTER,MEAN_ANOMALY,BSTAR,MEAN_MOTION_DOT,MEAN_MOTION_DDOT,TLE_LINE0,TLE_LINE1,TLE_LINE2,SEMIMAJOR_AXIS,PERIOD,APOGEE,PERIGEE,DECAYED
51878.0,STARLINK-3575,PAYLOAD,2022-09-10 14:00:01,15.08820482,0.0001633,53.2193,337.7828,55.9234,120.3624,0.00091095,0.00014232,0.0,0 STARLINK-3575,1 51878U 22022AC  22253.58334491  .00014232  00000-0  91095-3 0  9997,2 51878  53.2193 337.7828 0001633  55.9234 120.3624 15.08820482  1303,6917.94,95.439,540.935,538.675,0.0
51878.0,STARLINK-3575,PAYLOAD,2022-09-10 22:00:00,15.08844599,0.0001493,53.2189,336.2855,56.0937,131.7689,-0.0034933,-0.00055463,0.0,0 STARLINK-3575,1 51878U 22022AC  22253.91667824 -.00055463  00000-0 -34933-2 0  9993,2 51878  53.2189 336.2855 0001493  56.0937 131.7689 15.08844599 30515,6917.866,95.437,540.764,538.698,0.0
51878.0,STARLINK-3575,PAYLOAD,2022-09-11 06:00:00,15.08828544,0.0001455,53.219,334.7887,61.4886,137.963,0.0012144,0.00019086,0.0,0 STARLINK-3575,1 51878U 22022AC  22254.25001157  .00019086  00000-0  12144-2 0  9991,2 51878  53.2190 334.7887 0001455  61.4886 137.9630 15.08828544 30567,6917.915,95.438,540.7869999999998,538.774,0.0
51878.0,STARLINK-3575,PAYLOAD,2022-09-11 14:00:01,15.08825788,0.0001631,53.2188,333.2942,52.7901,158.2546,0.0019233,0.00030442,0.0,0 STARLINK-3575,1 51878U 22022AC  22254.58334491  .00030442  00000-0  19233-2 0  9992,2 51878  53.2188 333.2942 0001631  52.7901 158.2546 15.08825788  1306,6917.924,95.438,540.9169999999998,538.661,0.0
51878.0,STARLINK-3575,PAYLOAD,2022-09-11 22:00:00,15.08859989,0.0001568,53.2186,331.7965,55.3006,167.3323,-0.0035329999999999,-0.00056109,0.0,0 STARLINK-3575,1 51878U 22022AC  22254.91667824 -.00056109  00000-0 -35330-2 0  9994,2 51878  53.2186 331.7965 0001568  55.3006 167.3323 15.08859989  1300,6917.819,95.436,540.769,538.6,0.0
51878.0,STARLINK-3575,PAYLOAD,2022-09-12 06:00:00,15.08797549,0.000157,53.2177,330.2963,58.2363,176.0001,0.0021920999999999,0.00034731,0.0,0 STARLINK-3575,1 51878U 22022AC  22255.25001157  .00034731  00000-0  21921-2 0  9999,2 51878  53.2177 330.2963 0001570  58.2363 176.0001 15.08797549 30713,6918.01,95.44,540.961,538.789,0.0
51878.0,STARLINK-3575,PAYLOAD,2022-09-12 14:00:01,15.08818771,0.0001730999999999,53.2186,328.8052,52.0256,193.8002,0.00058553,9.038e-05,0.0,0 STARLINK-3575,1 51878U 22022AC  22255.58334491  .00009038  00000-0  58553-3 0  9999,2 51878  53.2186 328.8052 0001731  52.0256 193.8002 15.08818771  1309,6917.945,95.439,541.008,538.613,0.0
51878.0,STARLINK-3575,PAYLOAD,2022-09-12 22:00:00,15.0884131,0.0001584,53.2186,327.3074,52.9453,204.4614,-0.00047109,-7.778e-05,0.0,0 STARLINK-3575,1 51878U 22022AC  22255.91667824 -.00007778  00000-0 -47109-3 0  9991,2 51878  53.2186 327.3074 0001584  52.9453 204.4614 15.08841310  1304,6917.876,95.437,540.837,538.646,0.0
51878.0,STARLINK-3575,PAYLOAD,2022-09-13 14:00:01,15.08852447,0.0001753,53.2185,324.3159,49.53,231.0858,-0.00076106,-0.00012384,0.0,0 STARLINK-3575,1 51878U 22022AC  22256.58334491 -.00012384  00000-0 -76106-3 0  9994,2 51878  53.2185 324.3159 0001753  49.5300 231.0858 15.08852447  1304,6917.842,95.437,540.92,538.495,0.0
51878.0,STARLINK-3575,PAYLOAD,2022-09-13 16:00:00,15.0884631,0.000174,53.2182,323.9413,47.0856,326.4351,-0.00051627,-8.497e-05,0.0,0 STARLINK-3575,1 51878U 22022AC  22256.66667824 -.00008497  00000-0 -51627-3 0  9993,2 51878  53.2182 323.9413 0001740  47.0856 326.4351 15.08846310 30934,6917.861,95.437,540.93,538.5219999999998,0.0
51878.0,STARLINK-3575,PAYLOAD,2022-09-13 22:00:00,15.08828037,0.0001629,53.2188,322.8178,51.6367,240.5706,-0.0015958,-0.00025587,0.0,0 STARLINK-3575,1 51878U 22022AC  22256.91667824 -.00025587  00000-0 -15958-2 0  9996,2 51878  53.2188 322.8178 0001629  51.6367 240.5706 15.08828037  1305,6917.917,95.438,540.909,538.655,0.0
51878.0,STARLINK-3575,PAYLOAD,2022-09-14 06:00:00,15.08829896,0.0001649,53.2189,321.3216,57.0461,246.7256,5.167600000000001e-05,5.34e-06,0.0,0 STARLINK-3575,1 51878U 22022AC  22257.25001157  .00000534  00000-0  51676-4 0  9997,2 51878  53.2189 321.3216 0001649  57.0461 246.7256 15.08829896 31013,6917.911,95.438,540.9169999999998,538.636,0.0
51878.0,STARLINK-3575,PAYLOAD,2022-09-14 14:00:01,15.08811606,0.0001814,53.2189,319.8269,49.9411,265.4197,0.0029829,0.00047468,0.0,0 STARLINK-3575,1 51878U 22022AC  22257.58334491  .00047468  00000-0  29829-2 0  9993,2 51878  53.2189 319.8269 0001814  49.9411 265.4197 15.08811606  1303,6917.967,95.439,541.087,538.577,0.0
51878.0,STARLINK-3575,PAYLOAD,2022-09-14 22:00:00,15.08845289,0.0001625,53.219,318.329,51.9005,275.0439,-0.0024585,-0.00039208,0.0,0 STARLINK-3575,1 51878U 22022AC  22257.91667824 -.00039208  00000-0 -24585-2 0  9998,2 51878  53.2190 318.3290 0001625  51.9005 275.0439 15.08845289  1305,6917.864000000001,95.437,540.8530000000002,538.605,0.0
51878.0,STARLINK-3575,PAYLOAD,2022-09-15 06:00:00,15.08876791,0.0001617,53.2191,316.8326,55.1146,283.4227,-0.0033228,-0.00052836,0.0,0 STARLINK-3575,1 51878U 22022AC  22258.25001157 -.00052836  00000-0 -33228-2 0  9993,2 51878  53.2191 316.8326 0001617  55.1146 283.4227 15.08876791 31169,6917.768,95.435,540.752,538.514,0.0
51878.0,STARLINK-3575,PAYLOAD,2022-09-15 14:00:01,15.08814258,0.0001738,53.2189,315.3376,47.32899999999999,302.8311,0.0033249,0.00052989,0.0,0 STARLINK-3575,1 51878U 22022AC  22258.58334491  .00052989  00000-0  33249-2 0  9999,2 51878  53.2189 315.3376 0001738  47.3290 302.8311 15.08814258  1305,6917.959,95.439,541.026,538.622,0.0
51878.0,STARLINK-3575,PAYLOAD,2022-09-15 15:38:02,15.08838102,0.0001691,53.2197,315.0296,55.6688,304.4464,-1.581e-05,-5.400000000000002e-06,0.0,0 STARLINK-3575,1 51878U 22022AC  22258.65142075 -.00000540  00000-0 -15810-4 0  9996,2 51878  53.2197 315.0296 0001691  55.6688 304.4464 15.08838102 31239,6917.886,95.438,540.9209999999998,538.581,0.0
51878.0,STARLINK-3575,PAYLOAD,2022-09-16 10:42:40,15.08838755,0.0001652,53.2192,311.4632,48.956,311.1575,0.00013485,1.859e-05,0.0,0 STARLINK-3575,1 51878U 22022AC  22259.44629845  .00001859  00000-0  13485-3 0  9996,2 51878  53.2192 311.4632 0001652  48.9560 311.1575 15.08838755 31354,6917.884,95.438,540.8919999999998,538.606,0.0
51878.0,STARLINK-3575,PAYLOAD,2022-09-17 02:36:32,15.08832228,0.0001766999999999,53.2199,308.4917,58.8795,301.237,-5.0415e-06,-3.68e-06,0.0,0 STARLINK-3575,1 51878U 22022AC  22260.10870970 -.00000368  00000-0 -50415-5 0  9990,2 51878  53.2199 308.4917 0001767  58.8795 301.2370 15.08832228 31453,6917.904,95.438,540.992,538.547,0.0
51878.0,STARLINK-3575,PAYLOAD,2022-09-17 10:33:28,15.08827087,0.0001701,53.2194,307.0014,57.4622,302.6534,-0.00011711,-2.151e-05,0.0,0 STARLINK-3575,1 51878U 22022AC  22260.43991790 -.00002151  00000-0 -11711-3 0  9996,2 51878  53.2194 307.0014 0001701  57.4622 302.6534 15.08827087 31503,6917.92,95.438,540.962,538.6080000000002,0.0
51878.0,STARLINK-3575,PAYLOAD,2022-09-18 10:24:16,15.08832592,0.0001733,53.219,302.5419,53.5514,306.5638,-7.899299999999999e-06,-4.14e-06,0.0,0 STARLINK-3575,1 51878U 22022AC  22261.43351912 -.00000414  00000-0 -78993-5 0  9990,2 51878  53.2190 302.5419 0001733  53.5514 306.5638 15.08832592 31651,6917.903,95.438,540.967,538.569,0.0
51878.0,STARLINK-3575,PAYLOAD,2022-09-18 11:59:39,15.08833987,0.0001736,53.2195,302.2449,54.3007,305.8146,3.6143e-06,-2.31e-06,0.0,0 STARLINK-3575,1 51878U 22022AC  22261.49975817 -.00000231  00000-0  36143-5 0  9999,2 51878  53.2195 302.2449 0001736  54.3007 305.8146 15.08833987 31661,6917.899,95.438,540.965,538.563,0.0
51878.0,STARLINK-3575,PAYLOAD,2022-09-19 11:50:25,15.08837633,0.0001776,53.2192,297.7846,53.0724,307.043,0.00022997,3.374e-05,0.0,0 STARLINK-3575,1 51878U 22022AC  22262.49335547  .00003374  00000-0  22997-3 0  9990,2 51878  53.2192 297.7846 0001776  53.0724 307.0430 15.08837633 31812,6917.888000000001,95.438,540.981,538.524,0.0
51878.0,STARLINK-3575,PAYLOAD,2022-09-19 19:47:21,15.08844781,0.0001801,53.2192,296.2981,53.2137,306.9021,0.00023565,3.465e-05,0.0,0 STARLINK-3575,1 51878U 22022AC  22262.82455165  .00003465  00000-0  23565-3 0  9999,2 51878  53.2192 296.2981 0001801  53.2137 306.9021 15.08844781 31866,6917.866,95.437,540.977,538.485,0.0
51878.0,STARLINK-3575,PAYLOAD,2022-09-20 08:30:26,15.088435,0.00018,53.2194,293.9188,54.9707,305.1454,0.00012761,1.744e-05,0.0,0 STARLINK-3575,1 51878U 22022AC  22263.35447526  .00001744  00000-0  12761-3 0  9994,2 51878  53.2194 293.9188 0001800  54.9707 305.1454 15.08843500 31949,6917.87,95.437,540.98,538.489,0.0
51878.0,STARLINK-3575,PAYLOAD,2022-09-21 01:59:40,15.08849743,0.000174,53.2194,290.6475,54.1041,306.0112,9.6548e-05,1.249e-05,0.0,0 STARLINK-3575,1 51878U 22022AC  22264.08310863  .00001249  00000-0  96548-4 0  9994,2 51878  53.2194 290.6475 0001740  54.1041 306.0112 15.08849743 32057,6917.851,95.437,540.919,538.512,0.0
51878.0,STARLINK-3575,PAYLOAD,2022-09-22 08:11:59,15.08850442,0.000173,53.2174,284.9963,48.8942,311.2199,-7.48e-05,-1.479e-05,0.0,0 STARLINK-3575,1 51878U 22022AC  22265.34166598 -.00001479  00000-0 -74800-4 0  9992,2 51878  53.2174 284.9963 0001730  48.8942 311.2199 15.08850442 32244,6917.848000000001,95.437,540.91,538.5169999999998,0.0
51878.0,STARLINK-3575,PAYLOAD,2022-09-23 04:52:01,15.08836737,0.0001735,53.2196,281.1331,56.6434,303.4724,2.8754e-06,-2.42e-06,0.0,0 STARLINK-3575,1 51878U 22022AC  22266.20279674 -.00000242  00000-0  28754-5 0  9992,2 51878  53.2196 281.1331 0001735  56.6434 303.4724 15.08836737 32376,6917.89,95.438,540.956,538.555,0.0
51878.0,STARLINK-3575,PAYLOAD,2022-09-23 08:02:47,15.08839869,0.0001638,53.2184,280.5364,34.1966,325.9131,6.1069e-05,6.84e-06,0.0,0 STARLINK-3575,1 51878U 22022AC  22266.33527127  .00000684  00000-0  61069-4 0  9999,2 51878  53.2184 280.5364 0001638  34.1966 325.9131 15.08839869 32397,6917.880999999999,95.438,540.879,538.613,0.0
